{
  "norad_id": 63432,
  "name": "TIANPING-3A 02",
  "history": [
    {
      "epoch": "2026-03-28T16:39:04.708800Z",
      "apogee_km": 771.4891204605265,
      "perigee_km": 449.3824463582514,
      "latitude_deg": -3.617591528714941e-05,
      "longitude_deg": 37.93966064921631,
      "height_km": 669.8742158433627,
      "semi_major_axis_km": 6988.572783409389,
      "eccentricity": 0.02304524,
      "inclination_deg": 43.0002,
      "raan_deg": 113.8199,
      "arg_perigee_deg": 113.0496,
      "mean_anomaly_deg": 249.4816,
      "mean_motion_rev_day": 14.86004153
    },
    {
      "epoch": "2026-03-29T03:56:37.478688Z",
      "apogee_km": 771.4846276169037,
      "perigee_km": 449.3609414679895,
      "latitude_deg": 1.2372048223252858e-05,
      "longitude_deg": -134.40499267658453,
      "height_km": 677.3306245859187,
      "semi_major_axis_km": 6988.559784542446,
      "eccentricity": 0.0230465,
      "inclination_deg": 43.0001,
      "raan_deg": 111.3255,
      "arg_perigee_deg": 115.9131,
      "mean_anomaly_deg": 246.5653,
      "mean_motion_rev_day": 14.86008299
    },
    {
      "epoch": "2026-03-30T04:08:29.722272Z",
      "apogee_km": 771.4615487051105,
      "perigee_km": 449.31294422075916,
      "latitude_deg": -4.5733770399750244e-05,
      "longitude_deg": -143.7118058287892,
      "height_km": 692.7173975795116,
      "semi_major_axis_km": 6988.524246462935,
      "eccentricity": 0.0230484,
      "inclination_deg": 43.0001,
      "raan_deg": 105.9802,
      "arg_perigee_deg": 122.0453,
      "mean_anomaly_deg": 240.2993,
      "mean_motion_rev_day": 14.86019634
    },
    {
      "epoch": "2026-03-30T07:22:04.628928Z",
      "apogee_km": 771.4626135348863,
      "perigee_km": 449.30685675172845,
      "latitude_deg": -6.126136083171658e-06,
      "longitude_deg": 167.04759015400282,
      "height_km": 694.7065953266846,
      "semi_major_axis_km": 6988.5217351433075,
      "eccentricity": 0.02304892,
      "inclination_deg": 43.0001,
      "raan_deg": 105.2675,
      "arg_perigee_deg": 122.8634,
      "mean_anomaly_deg": 239.4614,
      "mean_motion_rev_day": 14.86020435
    }
  ]
}